HERMES-3                
1 63835U 25052BR  26068.93751242  .00020316  00000+0  69958-3 0  9995
2 63835  97.3987 324.6131 0007993 112.9583 247.2502 15.30039785 54863
STARLINK-34132          
1 64086U 25107Y   26068.39729572  .00037658  00000+0  13698-2 0  9992
2 64086  42.9988 203.3747 0003278 293.6744  66.3764 15.27605260 46047
